NORAD_CAT_ID,OBJECT_NAME,OBJECT_TYPE,EPOCH,MEAN_MOTION,ECCENTRICITY,INCLINATION,RA_OF_ASC_NODE,ARG_OF_PERICENTER,MEAN_ANOMALY,BSTAR,MEAN_MOTION_DOT,MEAN_MOTION_DDOT,TLE_LINE0,TLE_LINE1,TLE_LINE2,SEMIMAJOR_AXIS,PERIOD,APOGEE,PERIGEE,DECAYED
53745.0,STARLINK-4656,PAYLOAD,2023-05-06 01:24:46,15.0884813,0.0001175,53.2172,246.8459,77.6787,282.4337,0.00014623,2.041e-05,0.0,0 STARLINK-4656,1 53745U 22107AX  23126.05887061  .00002041  00000-0  14623-3 0  9991,2 53745  53.2172 246.8459 0001175  77.6787 282.4337 15.08848130 37018,6917.856,95.437,540.533,538.908,0.0
53745.0,STARLINK-4656,PAYLOAD,2023-05-06 12:32:28,15.08849046,6.93e-05,53.215,244.7632,80.1211,279.986,0.00018918,2.725e-05,0.0,0 STARLINK-4656,1 53745U 22107AX  23126.52254731  .00002725  00000-0  18918-3 0  9995,2 53745  53.2150 244.7632 0000693  80.1211 279.9860 15.08849046 37861,6917.853,95.437,540.197,539.238,0.0
53745.0,STARLINK-4656,PAYLOAD,2023-05-07 01:15:33,15.08845854,6.29e-05,53.2146,242.3852,70.6441,289.4619,0.00085378,0.00013328,0.0,0 STARLINK-4656,1 53745U 22107AX  23127.05246973  .00013328  00000-0  85378-3 0  9998,2 53745  53.2146 242.3852 0000629  70.6441 289.4619 15.08845854 37166,6917.862,95.437,540.163,539.292,0.0
53745.0,STARLINK-4656,PAYLOAD,2023-05-07 12:23:15,15.08834793,0.0001133,53.2142,240.2998,138.1806,221.9273,0.00038294,5.811e-05,0.0,0 STARLINK-4656,1 53745U 22107AX  23127.51615404  .00005811  00000-0  38294-3 0  9991,2 53745  53.2142 240.2998 0001133 138.1806 221.9273 15.08834793 37231,6917.896,95.438,540.545,538.978,0.0
53745.0,STARLINK-4656,PAYLOAD,2023-05-07 13:58:38,15.08835183,0.0001076,53.2149,240.0019,141.0074,219.0996,0.00031759,4.77e-05,0.0,0 STARLINK-4656,1 53745U 22107AX  23127.58239392  .00004770  00000-0  31759-3 0  9998,2 53745  53.2149 240.0019 0001076 141.0074 219.0996 15.08835183 38028,6917.895,95.438,540.504,539.016,0.0
53745.0,STARLINK-4656,PAYLOAD,2023-05-08 17:00:12,15.08850199,8.03e-05,53.2141,234.9509,91.4363,268.6721,0.00067099,0.0001041,0.0,0 STARLINK-4656,1 53745U 22107AX  23128.70847792  .00010410  00000-0  67099-3 0  9996,2 53745  53.2141 234.9509 0000803  91.4363 268.6721 15.08850199 38190,6917.849,95.437,540.27,539.159,0.0
53745.0,STARLINK-4656,PAYLOAD,2023-05-09 13:40:13,15.08843587,8.16e-05,53.2149,231.0838,80.9875,279.1209,0.00029745,4.45e-05,0.0,0 STARLINK-4656,1 53745U 22107AX  23129.56960181  .00004450  00000-0  29745-3 0  9992,2 53745  53.2149 231.0838 0000816  80.9875 279.1209 15.08843587 38322,6917.869,95.437,540.299,539.17,0.0
53745.0,STARLINK-4656,PAYLOAD,2023-05-10 11:55:37,15.08843182,7.56e-05,53.2145,226.922,75.1067,285.0009,0.00051125,7.859e-05,0.0,0 STARLINK-4656,1 53745U 22107AX  23130.49696411  .00007859  00000-0  51125-3 0  9991,2 53745  53.2145 226.9220 0000756  75.1067 285.0009 15.08843182 38468,6917.871,95.437,540.259,539.213,0.0
53745.0,STARLINK-4656,PAYLOAD,2023-05-11 10:11:01,15.08841307,9.36e-05,53.2153,222.7585,71.9574,288.152,0.00014294,1.988e-05,0.0,0 STARLINK-4656,1 53745U 22107AX  23131.42432487  .00001988  00000-0  14294-3 0  9999,2 53745  53.2153 222.7585 0000936  71.9574 288.1520 15.08841307 38607,6917.876,95.437,540.389,539.094,0.0
53745.0,STARLINK-4656,PAYLOAD,2023-05-11 11:46:24,15.08843168,9.99e-05,53.215,222.4608,69.8725,290.2375,0.00024867,3.672e-05,0.0,0 STARLINK-4656,1 53745U 22107AX  23131.49056499  .00003672  00000-0  24867-3 0  9990,2 53745  53.2150 222.4608 0000999  69.8725 290.2375 15.08843168 37833,6917.871,95.437,540.427,539.045,0.0
53745.0,STARLINK-4656,PAYLOAD,2023-05-11 13:21:47,15.08846439,0.0001043,53.2153,222.1637,69.8933,290.2171,0.00032801,4.937e-05,0.0,0 STARLINK-4656,1 53745U 22107AX  23131.55680417  .00004937  00000-0  32801-3 0  9992,2 53745  53.2153 222.1637 0001043  69.8933 290.2171 15.08846439 38623,6917.861,95.437,540.447,539.004,0.0
53745.0,STARLINK-4656,PAYLOAD,2023-05-12 08:26:25,15.08833151,9.78e-05,53.2139,218.5962,85.9161,274.1943,-7.2864e-05,-1.447e-05,0.0,0 STARLINK-4656,1 53745U 22107AX  23132.35168817 -.00001447  00000-0 -72864-4 0  9995,2 53745  53.2139 218.5962 0000978  85.9161 274.1943 15.08833151 38743,6917.901,95.438,540.443,539.09,0.0
53745.0,STARLINK-4656,PAYLOAD,2023-05-13 13:03:21,15.08850555,9.17e-05,53.214,213.244,123.4113,236.6967,0.00023142,3.398e-05,0.0,0 STARLINK-4656,1 53745U 22107AX  23133.54400026  .00003398  00000-0  23142-3 0  9997,2 53745  53.2140 213.2440 0000917 123.4113 236.6967 15.08850555 38146,6917.848,95.437,540.347,539.079,0.0
53745.0,STARLINK-4656,PAYLOAD,2023-05-13 22:35:40,15.08839815,8.74e-05,53.2158,211.456,97.4685,262.6406,8.1503e-05,1.01e-05,0.0,0 STARLINK-4656,1 53745U 22107AX  23133.94144546  .00001010  00000-0  81503-4 0  9998,2 53745  53.2158 211.4560 0000874  97.4685 262.6406 15.08839815 38204,6917.881,95.438,540.351,539.141,0.0
53745.0,STARLINK-4656,PAYLOAD,2023-05-14 12:54:09,15.08834881,0.0001026,53.2151,208.7803,90.3899,269.7211,-2.2271e-05,-6.42e-06,0.0,0 STARLINK-4656,1 53745U 22107AX  23134.53761141 -.00000642  00000-0 -22271-4 0  9999,2 53745  53.2151 208.7803 0001026  90.3899 269.7211 15.08834881 38294,6917.896,95.438,540.471,539.051,0.0
53745.0,STARLINK-4656,PAYLOAD,2023-05-15 11:09:33,15.08846185,0.0001063,53.2161,204.617,90.0756,270.0358,4.4773e-05,4.25e-06,0.0,0 STARLINK-4656,1 53745U 22107AX  23135.46496720  .00000425  00000-0  44773-4 0  9998,2 53745  53.2161 204.6170 0001063  90.0756 270.0358 15.08846185 38430,6917.861,95.437,540.462,538.991,0.0
53745.0,STARLINK-4656,PAYLOAD,2023-05-15 14:20:19,15.08847435,0.0001029,53.2158,204.0222,100.8327,259.2781,4.5548e-05,4.37e-06,0.0,0 STARLINK-4656,1 53745U 22107AX  23135.59744558  .00000437  00000-0  45548-4 0  9991,2 53745  53.2158 204.0222 0001029 100.8327 259.2781 15.08847435 39231,6917.858,95.437,540.435,539.011,0.0
53745.0,STARLINK-4656,PAYLOAD,2023-05-16 11:00:20,15.08837297,0.0001103,53.216,200.1553,92.1317,267.9802,0.00010705,1.416e-05,0.0,0 STARLINK-4656,1 53745U 22107AX  23136.45857282  .00001416  00000-0  10705-3 0  9990,2 53745  53.2160 200.1553 0001103  92.1317 267.9802 15.08837297 38585,6917.889,95.438,540.517,538.991,0.0
53745.0,STARLINK-4656,PAYLOAD,2023-05-16 14:11:07,15.08837139,0.0001107,53.216,199.5609,90.9829,269.1289,0.0001004,1.31e-05,0.0,0 STARLINK-4656,1 53745U 22107AX  23136.59105332  .00001310  00000-0  10040-3 0  9992,2 53745  53.2160 199.5609 0001107  90.9829 269.1289 15.08837139 39383,6917.889,95.438,540.52,538.988,0.0
53745.0,STARLINK-4656,PAYLOAD,2023-05-17 20:23:26,15.08840189,0.0001087,53.2156,193.9112,85.4665,274.6451,3.9144e-05,3.35e-06,0.0,0 STARLINK-4656,1 53745U 22107AX  23137.84961121  .00000335  00000-0  39144-4 0  9990,2 53745  53.2156 193.9112 0001087  85.4665 274.6451 15.08840189 39571,6917.88,95.438,540.497,538.993,0.0
53745.0,STARLINK-4656,PAYLOAD,2023-05-18 13:52:41,15.08836331,0.0001097,53.2159,190.6422,94.2918,265.82,1.7172e-05,-1.5e-07,0.0,0 STARLINK-4656,1 53745U 22107AX  23138.57825510 -.00000015  00000-0  17172-4 0  9995,2 53745  53.2159 190.6422 0001097  94.2918 265.8200 15.08836331 39682,6917.892,95.438,540.515,538.998,0.0
53745.0,STARLINK-4656,PAYLOAD,2023-05-18 20:14:13,15.08835891,0.0001089,53.2159,189.4528,92.6735,267.4382,1.2701e-05,-8.6e-07,0.0,0 STARLINK-4656,1 53745U 22107AX  23138.84321601 -.00000086  00000-0  12701-4 0  9998,2 53745  53.2159 189.4528 0001089  92.6735 267.4382 15.08835891 39729,6917.893,95.438,540.511,539.005,0.0
53745.0,STARLINK-4656,PAYLOAD,2023-05-19 02:35:46,15.0883702,0.0001079,53.2158,188.2631,92.1598,267.9518,3.4211e-05,2.57e-06,0.0,0 STARLINK-4656,1 53745U 22107AX  23139.10817509  .00000257  00000-0  34211-4 0  9994,2 53745  53.2158 188.2631 0001079  92.1598 267.9518 15.08837020 38980,6917.889,95.438,540.501,539.008,0.0
53745.0,STARLINK-4656,PAYLOAD,2023-05-19 20:05:00,15.08838418,0.0001023,53.2154,184.9921,91.2237,268.8872,2.5605e-05,1.2e-06,0.0,0 STARLINK-4656,1 53745U 22107AX  23139.83681413  .00000120  00000-0  25605-4 0  9993,2 53745  53.2154 184.9921 0001023  91.2237 268.8872 15.08838418 39874,6917.885,95.438,540.458,539.043,0.0
53745.0,STARLINK-4656,PAYLOAD,2023-05-20 10:23:28,15.08842105,0.0001008,53.2154,182.3157,89.4497,270.661,9.7855e-05,1.27e-05,0.0,0 STARLINK-4656,1 53745U 22107AX  23140.43297135  .00001270  00000-0  97855-4 0  9998,2 53745  53.2154 182.3157 0001008  89.4497 270.6610 15.08842105 39180,6917.874,95.437,540.436,539.042,0.0
53745.0,STARLINK-4656,PAYLOAD,2023-05-20 19:55:47,15.08843567,0.0001067,53.2155,180.5313,83.2368,276.8745,0.00010713,1.418e-05,0.0,0 STARLINK-4656,1 53745U 22107AX  23140.83041007  .00001418  00000-0  10713-3 0  9998,2 53745  53.2155 180.5313 0001067  83.2368 276.8745 15.08843567 40024,6917.869,95.437,540.473,538.996,0.0
53745.0,STARLINK-4656,PAYLOAD,2023-05-21 11:49:38,15.08849884,0.0001079,53.2153,177.5573,83.0237,277.0878,0.00010137,1.326e-05,0.0,0 STARLINK-4656,1 53745U 22107AX  23141.49280441  .00001326  00000-0  10137-3 0  9996,2 53745  53.2153 177.5573 0001079  83.0237 277.0878 15.08849884 40121,6917.85,95.437,540.462,538.969,0.0
53745.0,STARLINK-4656,PAYLOAD,2023-05-21 19:46:34,15.08838158,0.0001021,53.2152,176.0694,94.3676,265.7433,5.5956e-05,6.03e-06,0.0,0 STARLINK-4656,1 53745U 22107AX  23141.82401176  .00000603  00000-0  55956-4 0  9999,2 53745  53.2152 176.0694 0001021  94.3676 265.7433 15.08838158 40175,6917.886,95.438,540.457,539.045,0.0
53745.0,STARLINK-4656,PAYLOAD,2023-05-22 02:08:07,15.08836141,0.0001116,53.2147,174.8808,90.5235,269.5885,7.0784e-06,-1.75e-06,0.0,0 STARLINK-4656,1 53745U 22107AX  23142.08897539 -.00000175  00000-0  70784-5 0  9992,2 53745  53.2147 174.8808 0001116  90.5235 269.5885 15.08836141 39436,6917.892,95.438,540.529,538.985,0.0
53745.0,STARLINK-4656,PAYLOAD,2023-05-22 08:29:40,15.08835928,0.0001148,53.215,173.6914,88.9116,271.2008,-1.66e-06,-3.14e-06,0.0,0 STARLINK-4656,1 53745U 22107AX  23142.35393679 -.00000314  00000-0 -16600-5 0  9991,2 53745  53.2150 173.6914 0001148  88.9116 271.2008 15.08835928 40250,6917.893,95.438,540.552,538.964,0.0
